{
    "links": {
        "self": "http://www.neowsapp.com/rest/v1/neo/3819669?api_key=iIulBulltgU6a56xZRHN4H3l9WmuAYTsLGpBGhQ2"
    },
    "id": "3819669",
    "neo_reference_id": "3819669",
    "name": "(2018 GS11)",
    "designation": "2018 GS11",
    "nasa_jpl_url": "http://ssd.jpl.nasa.gov/sbdb.cgi?sstr=3819669",
    "absolute_magnitude_h": 27.627,
    "estimated_diameter": {
        "kilometers": {
            "estimated_diameter_min": 0.0079278418,
            "estimated_diameter_max": 0.0177271932
        },
        "meters": {
            "estimated_diameter_min": 7.9278418253,
            "estimated_diameter_max": 17.7271932362
        },
        "miles": {
            "estimated_diameter_min": 0.004926131,
            "estimated_diameter_max": 0.0110151638
        },
        "feet": {
            "estimated_diameter_min": 26.0099805741,
            "estimated_diameter_max": 58.160084657
        }
    },
    "is_potentially_hazardous_asteroid": false,
    "close_approach_data": [
        {
            "close_approach_date": "2018-04-13",
            "close_approach_date_full": "2018-Apr-13 23:59",
            "epoch_date_close_approach": 1523663940000,
            "relative_velocity": {
                "kilometers_per_second": "8.4840242404",
                "kilometers_per_hour": "30542.4872654772",
                "miles_per_hour": "18977.9138233739"
            },
            "miss_distance": {
                "astronomical": "0.0207692853",
                "lunar": "8.0792519817",
                "kilometers": "3107040.842302311",
                "miles": "1930625.6551054518"
            },
            "orbiting_body": "Earth"
        }
    ],
    "orbital_data": {
        "orbit_id": "1",
        "orbit_determination_date": "2018-04-30 06:50:40",
        "first_observation_date": "2018-04-12",
        "last_observation_date": "2018-04-13",
        "data_arc_in_days": 1,
        "observations_used": 12,
        "orbit_uncertainty": "7",
        "minimum_orbit_intersection": ".0202568",
        "jupiter_tisserand_invariant": "4.801",
        "epoch_osculation": "2459000.5",
        "eccentricity": ".2738004874276371",
        "semi_major_axis": "1.354448108500604",
        "inclination": "12.2015046665985",
        "ascending_node_longitude": "200.3318813482371",
        "orbital_period": "575.7606545735566",
        "perihelion_distance": ".9835995561976973",
        "perihelion_argument": "36.41999975135315",
        "aphelion_distance": "1.725296660803511",
        "perihelion_time": "2458828.113988043682",
        "mean_anomaly": "107.7860458357284",
        "mean_motion": ".6252598143696323",
        "equinox": "J2000",
        "orbit_class": {
            "orbit_class_type": "APO",
            "orbit_class_description": "Near-Earth asteroid orbits which cross the Earth’s orbit similar to that of 1862 Apollo",
            "orbit_class_range": "a (semi-major axis) > 1.0 AU; q (perihelion) < 1.017 AU"
        }
    },
    "is_sentry_object": false
}